{
  "type": "FeatureCollection",
  "name": "aoi_atitlan_bbox",
  "crs": {
    "type": "name",
    "properties": {
      "name": "EPSG:4326"
    }
  },
  "features": [
    {
      "type": "Feature",
      "properties": {
        "lago": "atitlan",
        "nombre": "Lago de Atitlán",
        "geometry_role": "query_bbox",
        "is_lake_boundary": false,
        "source": "Coordenadas del enunciado del Laboratorio 4"
      },
      "geometry": {
        "type": "Polygon",
        "coordinates": [
          [
            [-91.326256, 14.5948],
            [-91.07151, 14.5948],
            [-91.07151, 14.750979],
            [-91.326256, 14.750979],
            [-91.326256, 14.5948]
          ]
        ]
      }
    }
  ]
}
